[{"OBJECT_NAME":"STARLINK-5524","OBJECT_ID":"2023-064AC","EPOCH":"2026-03-09T13:07:58.611360","MEAN_MOTION":14.98314489,"ECCENTRICITY":0.00036782,"INCLINATION":69.9998,"RA_OF_ASC_NODE":124.9922,"ARG_OF_PERICENTER":267.194,"MEAN_ANOMALY":92.8798,"EPHEMERIS_TYPE":0,"CLASSIFICATION_TYPE":"U","NORAD_CAT_ID":56474,"ELEMENT_SET_NO":999,"REV_AT_EPOCH":15571,"BSTAR":-7.9720758e-5,"MEAN_MOTION_DOT":-1.044e-5,"MEAN_MOTION_DDOT":0},{"OBJECT_NAME":"CZ-4B DEB","OBJECT_ID":"2006-046E","EPOCH":"2026-03-09T15:05:34.126944","MEAN_MOTION":15.05038248,"ECCENTRICITY":0.0035443,"INCLINATION":97.6504,"RA_OF_ASC_NODE":126.4986,"ARG_OF_PERICENTER":210.976,"MEAN_ANOMALY":148.9377,"EPHEMERIS_TYPE":0,"CLASSIFICATION_TYPE":"U","NORAD_CAT_ID":29509,"ELEMENT_SET_NO":999,"REV_AT_EPOCH":5351,"BSTAR":0.00027248,"MEAN_MOTION_DOT":3.86e-5,"MEAN_MOTION_DDOT":0}]
